STARLINK-2465
1 18124C 21027AJ  21326.16180198 -.00011425  00000-0 -76562-3 0  3267
2 18124  53.0563   3.0193 0001383  68.0740  34.7182 15.06404742    18
